0 DELTA 2 R/B(1)
1 22109U 92058B   13281.48567442  .00001190  00000-0  12949-3 0  8755
2 22109 019.7842 045.0524 0038276 139.3949 293.2748 14.71181340131405
0 DELTA 2 R/B(1)
1 22109U 92058B   13282.50556209  .00001289  00000-0  14505-3 0  8768
2 22109 019.7842 038.2442 0038227 151.8105 294.8351 14.71186733131551
0 DELTA 2 R/B(1)
1 22109U 92058B   13283.52532072  .00001256  00000-0  13978-3 0  8771
2 22109 019.7843 031.4376 0038178 164.1067 295.8441 14.71188766131708
0 DELTA 2 R/B(1)
1 22109U 92058B   13285.49259163  .00001213  00000-0  13306-3 0  8785
2 22109 019.7843 018.3050 0038123 188.1358 274.9387 14.71192148131997
0 DELTA 2 R/B(1)
1 22109U 92058B   13286.51290207  .00001269  00000-0  14185-3 0  8791
2 22109 019.7843 011.4939 0038109 200.6338 278.7016 14.71193736132142
0 DELTA 2 R/B(1)
1 22109U 92058B   13287.53321870  .00001407  00000-0  16350-3 0  8807
2 22109 019.7845 004.6824 0038106 213.1879 282.4478 14.71196123132290
0 DELTA 2 R/B(1)
1 22109U 92058B   13289.50079716  .00001431  00000-0  16717-3 0  8810
2 22109 019.7844 351.5479 0038100 237.2357 263.2201 14.71203069132582
0 DELTA 2 R/B(1)
1 22109U 92058B   13290.51741786  .00001556  00000-0  18684-3 0  8820
2 22109 019.7843 344.7615 0038119 249.6842 247.4838 14.71205157132730
0 DELTA 2 R/B(1)
1 22109U 92058B   13291.53582839  .00001550  00000-0  18586-3 0  8831
2 22109 019.7843 337.9628 0038160 262.1266 241.2654 14.71207501132883
0 DELTA 2 R/B(1)
1 22109U 92058B   13293.50302769  .00001741  00000-0  21589-3 0  8842
2 22109 019.7841 324.8303 0038219 286.1392 220.1416 14.71212885133173
0 DELTA 2 R/B(1)
1 22109U 92058B   13295.32910934  .00001823  00000-0  22880-3 0  8850
2 22109 019.7840 312.6397 0038291 308.4064 171.6716 14.71218559133441
